[{"OBJECT_NAME":"STARLINK-34142","OBJECT_ID":"2025-099F","EPOCH":"2026-03-08T09:07:08.038560","MEAN_MOTION":15.27584978,"ECCENTRICITY":0.00012078,"INCLINATION":43.0005,"RA_OF_ASC_NODE":183.8245,"ARG_OF_PERICENTER":272.8686,"MEAN_ANOMALY":87.2027,"EPHEMERIS_TYPE":0,"CLASSIFICATION_TYPE":"U","NORAD_CAT_ID":63957,"ELEMENT_SET_NO":999,"REV_AT_EPOCH":4713,"BSTAR":0.0021135314,"MEAN_MOTION_DOT":0.00058368,"MEAN_MOTION_DDOT":0},{"OBJECT_NAME":"COSMOS 546","OBJECT_ID":"1973-005A","EPOCH":"2026-03-09T21:40:39.247392","MEAN_MOTION":15.29707303,"ECCENTRICITY":0.00147738,"INCLINATION":50.6327,"RA_OF_ASC_NODE":289.914,"ARG_OF_PERICENTER":261.1516,"MEAN_ANOMALY":98.7778,"EPHEMERIS_TYPE":0,"CLASSIFICATION_TYPE":"U","NORAD_CAT_ID":6350,"ELEMENT_SET_NO":999,"REV_AT_EPOCH":92802,"BSTAR":9.142057e-5,"MEAN_MOTION_DOT":2.316e-5,"MEAN_MOTION_DDOT":0}]
